1 26871U 01031A   12002.32681127 -.00000275  00000-0  10000-3 0  3931
2 26871 001.8830 074.7970 0002619 251.3465 193.0905 01.00265007 38328